start=new Date('2023-06-26T00:00:00.000Z').valueOf();
sats=[{"TLE_LINE1":"1 56521U 23065U   23176.58334491 -.00948614  00000-0 -11502-1 0  9995","NORAD_CAT_ID":"56521","GP_ID":"234544136","TIME_SYSTEM":"UTC","SEMIMAJOR_AXIS":"6758.981","FILE":"3942435","OBJECT_ID":"2023-065U","MEAN_ANOMALY":"251.4028","LAUNCH_DATE":"2023-05-14","PERIAPSIS":"379.894","DECAY_DATE":null,"ARG_OF_PERICENTER":"271.5640","RA_OF_ASC_NODE":"188.8435","MEAN_MOTION_DDOT":"0.0000000000000","ELEMENT_SET_NO":"999","RCS_SIZE":"LARGE","CLASSIFICATION_TYPE":"U","BSTAR":"-0.01150200000000","INCLINATION":"42.9974","OBJECT_NAME":"STARLINK-6333","REV_AT_EPOCH":"709","EPOCH":"2023-06-25T14:00:01.000224","MEAN_ELEMENT_THEORY":"SGP4","APOAPSIS":"381.798","OBJECT_TYPE":"PAYLOAD","TLE_LINE2":"2 56521  42.9974 188.8435 0001408 271.5640 251.4028 15.62359315  7099","REF_FRAME":"TEME","MEAN_MOTION_DOT":"-0.00948614","PERIOD":"92.168","CENTER_NAME":"EARTH","MEAN_MOTION":"15.62359315","EPHEMERIS_TYPE":"0","COUNTRY_CODE":"US","SITE":"AFETR","ECCENTRICITY":"0.00014080"},{"MEAN_MOTION_DDOT":"0.0000000000000","ELEMENT_SET_NO":"999","RA_OF_ASC_NODE":"188.8481","LAUNCH_DATE":"2023-05-14","ARG_OF_PERICENTER":"273.7684","DECAY_DATE":null,"PERIAPSIS":"379.939","MEAN_ANOMALY":"247.1130","FILE":"3942426","OBJECT_ID":"2023-065V","TIME_SYSTEM":"UTC","SEMIMAJOR_AXIS":"6759.034","GP_ID":"234544014","NORAD_CAT_ID":"56522","TLE_LINE1":"1 56522U 23065V   23176.58334491 -.00948148  00000-0 -11504-1 0  9990","EPHEMERIS_TYPE":"0","MEAN_MOTION":"15.62341047","ECCENTRICITY":"0.00014200","SITE":"AFETR","COUNTRY_CODE":"US","PERIOD":"92.169","MEAN_MOTION_DOT":"-0.00948148","REF_FRAME":"TEME","CENTER_NAME":"EARTH","APOAPSIS":"381.858","TLE_LINE2":"2 56522  42.9975 188.8481 0001420 273.7684 247.1130 15.62341047  7097","OBJECT_TYPE":"PAYLOAD","MEAN_ELEMENT_THEORY":"SGP4","EPOCH":"2023-06-25T14:00:01.000224","REV_AT_EPOCH":"709","OBJECT_NAME":"STARLINK-6327","BSTAR":"-0.01150400000000","INCLINATION":"42.9975","CLASSIFICATION_TYPE":"U","RCS_SIZE":"LARGE"},{"OBJECT_NAME":"STARLINK-6328","REV_AT_EPOCH":"709","INCLINATION":"42.9973","BSTAR":"-0.01147900000000","CLASSIFICATION_TYPE":"U","RCS_SIZE":"LARGE","COUNTRY_CODE":"US","ECCENTRICITY":"0.00014600","SITE":"AFETR","MEAN_MOTION":"15.62369949","EPHEMERIS_TYPE":"0","CENTER_NAME":"EARTH","MEAN_MOTION_DOT":"-0.00947267","REF_FRAME":"TEME","PERIOD":"92.168","TLE_LINE2":"2 56523  42.9973 188.8401 0001460 278.6262 245.7313 15.62369949  7096","OBJECT_TYPE":"PAYLOAD","APOAPSIS":"381.802","EPOCH":"2023-06-25T14:00:01.000224","MEAN_ELEMENT_THEORY":"SGP4","OBJECT_ID":"2023-065W","FILE":"3942426","SEMIMAJOR_AXIS":"6758.950","TIME_SYSTEM":"UTC","NORAD_CAT_ID":"56523","GP_ID":"234544013","TLE_LINE1":"1 56523U 23065W   23176.58334491 -.00947267  00000-0 -11479-1 0  9993","ELEMENT_SET_NO":"999","MEAN_MOTION_DDOT":"0.0000000000000","RA_OF_ASC_NODE":"188.8401","DECAY_DATE":null,"PERIAPSIS":"379.829","ARG_OF_PERICENTER":"278.6262","LAUNCH_DATE":"2023-05-14","MEAN_ANOMALY":"245.7313"},{"FILE":"3942417","OBJECT_ID":"2023-065X","TIME_SYSTEM":"UTC","SEMIMAJOR_AXIS":"6758.998","GP_ID":"234543969","NORAD_CAT_ID":"56524","TLE_LINE1":"1 56524U 23065X   23176.58334491 -.00948795  00000-0 -11507-1 0  9993","MEAN_MOTION_DDOT":"0.0000000000000","ELEMENT_SET_NO":"999","RA_OF_ASC_NODE":"188.8449","LAUNCH_DATE":"2023-05-14","DECAY_DATE":null,"PERIAPSIS":"379.907","ARG_OF_PERICENTER":"275.3036","MEAN_ANOMALY":"246.9679","OBJECT_NAME":"STARLINK-6323","REV_AT_EPOCH":"709","INCLINATION":"42.9975","BSTAR":"-0.01150700000000","CLASSIFICATION_TYPE":"U","RCS_SIZE":"LARGE","MEAN_MOTION":"15.62353569","EPHEMERIS_TYPE":"0","COUNTRY_CODE":"US","SITE":"AFETR","ECCENTRICITY":"0.00014140","REF_FRAME":"TEME","MEAN_MOTION_DOT":"-0.00948795","PERIOD":"92.169","CENTER_NAME":"EARTH","APOAPSIS":"381.818","TLE_LINE2":"2 56524  42.9975 188.8449 0001414 275.3036 246.9679 15.62353569  7092","OBJECT_TYPE":"PAYLOAD","EPOCH":"2023-06-25T14:00:01.000224","MEAN_ELEMENT_THEORY":"SGP4"},{"PERIOD":"92.082","MEAN_MOTION_DOT":"0.00081275","REF_FRAME":"TEME","CENTER_NAME":"EARTH","EPHEMERIS_TYPE":"0","MEAN_MOTION":"15.63816499","ECCENTRICITY":"0.00038220","SITE":"AFETR","COUNTRY_CODE":"US","MEAN_ELEMENT_THEORY":"SGP4","EPOCH":"2023-06-25T22:00:01.999584","APOAPSIS":"379.228","OBJECT_TYPE":"PAYLOAD","TLE_LINE2":"2 56525  42.9976 186.8395 0003822 273.0570 334.3157 15.63816499  7141","INCLINATION":"42.9976","BSTAR":"0.00083890000000","REV_AT_EPOCH":"714","OBJECT_NAME":"STARLINK-6329","RCS_SIZE":"LARGE","CLASSIFICATION_TYPE":"U","RA_OF_ASC_NODE":"186.8395","MEAN_MOTION_DDOT":"0.0000000000000","ELEMENT_SET_NO":"999","MEAN_ANOMALY":"334.3157","LAUNCH_DATE":"2023-05-14","ARG_OF_PERICENTER":"273.0570","PERIAPSIS":"374.065","DECAY_DATE":null,"TIME_SYSTEM":"UTC","SEMIMAJOR_AXIS":"6754.782","FILE":"3942683","OBJECT_ID":"2023-065Y","TLE_LINE1":"1 56525U 23065Y   23176.91668981  .00081275  00000-0  83890-3 0  9990","NORAD_CAT_ID":"56525","GP_ID":"234550502"},{"MEAN_MOTION_DDOT":"0.0000000000000","ELEMENT_SET_NO":"999","RA_OF_ASC_NODE":"188.8414","LAUNCH_DATE":"2023-05-14","DECAY_DATE":null,"PERIAPSIS":"379.873","ARG_OF_PERICENTER":"277.0134","MEAN_ANOMALY":"246.6481","FILE":"3942417","OBJECT_ID":"2023-065Z","TIME_SYSTEM":"UTC","SEMIMAJOR_AXIS":"6758.962","GP_ID":"234543961","NORAD_CAT_ID":"56526","TLE_LINE1":"1 56526U 23065Z   23176.58334491 -.00949286  00000-0 -11508-1 0  9992","MEAN_MOTION":"15.62365849","EPHEMERIS_TYPE":"0","COUNTRY_CODE":"US","SITE":"AFETR","ECCENTRICITY":"0.00014120","REF_FRAME":"TEME","MEAN_MOTION_DOT":"-0.00949286","PERIOD":"92.168","CENTER_NAME":"EARTH","APOAPSIS":"381.782","TLE_LINE2":"2 56526  42.9974 188.8414 0001412 277.0134 246.6481 15.62365849  7093","OBJECT_TYPE":"PAYLOAD","EPOCH":"2023-06-25T14:00:01.000224","MEAN_ELEMENT_THEORY":"SGP4","OBJECT_NAME":"STARLINK-6317","REV_AT_EPOCH":"709","INCLINATION":"42.9974","BSTAR":"-0.01150800000000","CLASSIFICATION_TYPE":"U","RCS_SIZE":"LARGE"},{"CENTER_NAME":"EARTH","PERIOD":"92.166","MEAN_MOTION_DOT":"-0.00950268","REF_FRAME":"TEME","SITE":"AFETR","ECCENTRICITY":"0.00014010","COUNTRY_CODE":"US","EPHEMERIS_TYPE":"0","MEAN_MOTION":"15.62390467","MEAN_ELEMENT_THEORY":"SGP4","EPOCH":"2023-06-25T14:00:01.000224","OBJECT_TYPE":"PAYLOAD","TLE_LINE2":"2 56527  42.9976 188.8349 0001401 276.9212 249.5195 15.62390467  7094","APOAPSIS":"381.703","INCLINATION":"42.9976","BSTAR":"-0.01151000000000","REV_AT_EPOCH":"709","OBJECT_NAME":"STARLINK-6335","RCS_SIZE":"LARGE","CLASSIFICATION_TYPE":"U","RA_OF_ASC_NODE":"188.8349","ELEMENT_SET_NO":"999","MEAN_MOTION_DDOT":"0.0000000000000","MEAN_ANOMALY":"249.5195","ARG_OF_PERICENTER":"276.9212","DECAY_DATE":null,"PERIAPSIS":"379.809","LAUNCH_DATE":"2023-05-14","SEMIMAJOR_AXIS":"6758.891","TIME_SYSTEM":"UTC","OBJECT_ID":"2023-065AA","FILE":"3942417","TLE_LINE1":"1 56527U 23065AA  23176.58334491 -.00950268  00000-0 -11510-1 0  9998","GP_ID":"234543968","NORAD_CAT_ID":"56527"},{"INCLINATION":"42.9974","BSTAR":"-0.01149900000000","REV_AT_EPOCH":"709","OBJECT_NAME":"STARLINK-6337","RCS_SIZE":"LARGE","CLASSIFICATION_TYPE":"U","CENTER_NAME":"EARTH","PERIOD":"92.167","MEAN_MOTION_DOT":"-0.00949003","REF_FRAME":"TEME","SITE":"AFETR","ECCENTRICITY":"0.00014060","COUNTRY_CODE":"US","EPHEMERIS_TYPE":"0","MEAN_MOTION":"15.62377415","MEAN_ELEMENT_THEORY":"SGP4","EPOCH":"2023-06-25T14:00:01.000224","TLE_LINE2":"2 56528  42.9974 188.8381 0001406 271.7615 253.2901 15.62377415  7099","OBJECT_TYPE":"PAYLOAD","APOAPSIS":"381.744","SEMIMAJOR_AXIS":"6758.929","TIME_SYSTEM":"UTC","OBJECT_ID":"2023-065AB","FILE":"3942417","TLE_LINE1":"1 56528U 23065AB  23176.58334491 -.00949003  00000-0 -11499-1 0  9990","NORAD_CAT_ID":"56528","GP_ID":"234543964","RA_OF_ASC_NODE":"188.8381","ELEMENT_SET_NO":"999","MEAN_MOTION_DDOT":"0.0000000000000","MEAN_ANOMALY":"253.2901","ARG_OF_PERICENTER":"271.7615","DECAY_DATE":null,"PERIAPSIS":"379.844","LAUNCH_DATE":"2023-05-14"},{"OBJECT_NAME":"STARLINK-6307","REV_AT_EPOCH":"707","INCLINATION":"42.9992","BSTAR":"0.00001554800000","CLASSIFICATION_TYPE":"U","RCS_SIZE":"LARGE","COUNTRY_CODE":"US","SITE":"AFETR","ECCENTRICITY":"0.00015680","MEAN_MOTION":"15.71343798","EPHEMERIS_TYPE":"0","CENTER_NAME":"EARTH","REF_FRAME":"TEME","MEAN_MOTION_DOT":"0.00001586","PERIOD":"91.641","TLE_LINE2":"2 56529  42.9992 189.2857 0001568 227.7959 132.2776 15.71343798  7075","OBJECT_TYPE":"PAYLOAD","APOAPSIS":"356.113","EPOCH":"2023-06-25T11:26:31.498080","MEAN_ELEMENT_THEORY":"SGP4","OBJECT_ID":"2023-065AC","FILE":"3942683","SEMIMAJOR_AXIS":"6733.192","TIME_SYSTEM":"UTC","NORAD_CAT_ID":"56529","GP_ID":"234550499","TLE_LINE1":"1 56529U 23065AC  23176.47675345  .00001586  00000-0  15548-4 0  9990","ELEMENT_SET_NO":"999","MEAN_MOTION_DDOT":"0.0000000000000","RA_OF_ASC_NODE":"189.2857","DECAY_DATE":null,"PERIAPSIS":"354.002","ARG_OF_PERICENTER":"227.7959","LAUNCH_DATE":"2023-05-14","MEAN_ANOMALY":"132.2776"},{"CLASSIFICATION_TYPE":"U","RCS_SIZE":"LARGE","OBJECT_NAME":"STARLINK-6318","REV_AT_EPOCH":"707","INCLINATION":"42.9988","BSTAR":"0.00004658300000","APOAPSIS":"356.001","OBJECT_TYPE":"PAYLOAD","TLE_LINE2":"2 56530  42.9988 189.2867 0001346 248.2647 111.8078 15.71330753  7074","EPOCH":"2023-06-25T11:26:59.127072","MEAN_ELEMENT_THEORY":"SGP4","MEAN_MOTION":"15.71330753","EPHEMERIS_TYPE":"0","COUNTRY_CODE":"US","SITE":"AFETR","ECCENTRICITY":"0.00013460","MEAN_MOTION_DOT":"0.00005655","REF_FRAME":"TEME","PERIOD":"91.642","CENTER_NAME":"EARTH","GP_ID":"234550711","NORAD_CAT_ID":"56530","TLE_LINE1":"1 56530U 23065AD  23176.47707323  .00005655  00000-0  46583-4 0  9998","FILE":"3942683","OBJECT_ID":"2023-065AD","TIME_SYSTEM":"UTC","SEMIMAJOR_AXIS":"6733.230","LAUNCH_DATE":"2023-05-14","DECAY_DATE":null,"PERIAPSIS":"354.188","ARG_OF_PERICENTER":"248.2647","MEAN_ANOMALY":"111.8078","MEAN_MOTION_DDOT":"0.0000000000000","ELEMENT_SET_NO":"999","RA_OF_ASC_NODE":"189.2867"}];
